COMMENT,ORIGINATOR,NORAD_CAT_ID,OBJECT_NAME,OBJECT_TYPE,CLASSIFICATION_TYPE,INTLDES,EPOCH,EPOCH_MICROSECONDS,MEAN_MOTION,ECCENTRICITY,INCLINATION,RA_OF_ASC_NODE,ARG_OF_PERICENTER,MEAN_ANOMALY,EPHEMERIS_TYPE,ELEMENT_SET_NO,REV_AT_EPOCH,BSTAR,MEAN_MOTION_DOT,MEAN_MOTION_DDOT,FILE,TLE_LINE0,TLE_LINE1,TLE_LINE2,OBJECT_ID,OBJECT_NUMBER,SEMIMAJOR_AXIS,PERIOD,APOGEE,PERIGEE,DECAYED
"GENERATED VIA SPACETRACK.ORG API","18 SPCS","48886","SPACEBEE-102","PAYLOAD","U","21059H","2023-08-08 02:41:35","800224","15.34626671","0.0005677","97.5996","358.1791","94.7443","265.4448","0","999","11733","0.0012205","0.00041061","0","3974640","0 SPACEBEE-102","1 48886U 21059H   23220.11221991  .00041061  00000-0  12205-2 0  9990","2 48886  97.5996 358.1791 0005677  94.7443 265.4448 15.34626671117330","2021-059H","48886","6840.167","93.834","465.915","458.148","0"
"GENERATED VIA SPACETRACK.ORG API","18 SPCS","48886","SPACEBEE-102","PAYLOAD","U","21059H","2023-08-09 08:25:31","890720","15.34722507","0.0005533","97.5992","359.4548","90.2894","269.8983","0","999","11752","0.0011016","0.00037146","0","3975868","0 SPACEBEE-102","1 48886U 21059H   23221.35106355  .00037146  00000-0  11016-2 0  9991","2 48886  97.5992 359.4548 0005533  90.2894 269.8983 15.34722507117520","2021-059H","48886","6839.882","93.828","465.531","457.962","0"
"GENERATED VIA SPACETRACK.ORG API","18 SPCS","48886","SPACEBEE-102","PAYLOAD","U","21059H","2023-08-10 15:43:14","391552","15.34821447","0.0005495","97.5995","0.7979","85.8528","274.3342","0","999","11772","0.0010989","0.00037171","0","3977114","0 SPACEBEE-102","1 48886U 21059H   23222.65502768  .00037171  00000-0  10989-2 0  9999","2 48886  97.5995   0.7979 0005495  85.8528 274.3342 15.34821447117723","2021-059H","48886","6839.588","93.822","465.211","457.695","0"
"GENERATED VIA SPACETRACK.ORG API","18 SPCS","48886","SPACEBEE-102","PAYLOAD","U","21059H","2023-08-11 23:00:49","665888","15.34918332","0.0005414","97.5992","2.1405","80.8694","279.3161","0","999","11792","0.0010149","0.00034416","0","3978217","0 SPACEBEE-102","1 48886U 21059H   23223.95890817  .00034416  00000-0  10149-2 0  9995","2 48886  97.5992   2.1405 0005414  80.8694 279.3161 15.34918332117926","2021-059H","48886","6839.300","93.816","464.868","457.462","0"
"GENERATED VIA SPACETRACK.ORG API","18 SPCS","48886","SPACEBEE-102","PAYLOAD","U","21059H","2023-08-13 07:52:10","89984","15.35021187","0.0005304","97.5994","3.5509","75.783","284.4001","0","999","11813","0.0010782","0.00036698","0","3979348","0 SPACEBEE-102","1 48886U 21059H   23225.32789456  .00036698  00000-0  10782-2 0  9991","2 48886  97.5994   3.5509 0005304  75.7830 284.4001 15.35021187118139","2021-059H","48886","6838.995","93.810","464.487","457.232","0"
"GENERATED VIA SPACETRACK.ORG API","18 SPCS","48886","SPACEBEE-102","PAYLOAD","U","21059H","2023-08-14 08:54:03","426336","15.3509199","0.0005235","97.5996","4.6257","72.5243","287.6572","0","999","11829","0.0010005","0.00034112","0","3980165","0 SPACEBEE-102","1 48886U 21059H   23226.37087299  .00034112  00000-0  10005-2 0  9990","2 48886  97.5996   4.6257 0005235  72.5243 287.6572 15.35091990118293","2021-059H","48886","6838.784","93.805","464.229","457.069","0"
"GENERATED VIA SPACETRACK.ORG API","18 SPCS","48886","SPACEBEE-102","PAYLOAD","U","21059H","2023-08-15 14:37:27","516864","15.35179188","0.0005136","97.6","5.9016","67.9459","292.2328","0","999","11848","0.0010724","0.00036683","0","3981186","0 SPACEBEE-102","1 48886U 21059H   23227.60934626  .00036683  00000-0  10724-2 0  9995","2 48886  97.6000   5.9016 0005136  67.9459 292.2328 15.35179188118482","2021-059H","48886","6838.525","93.800","463.903","456.878","0"
"GENERATED VIA SPACETRACK.ORG API","18 SPCS","48886","SPACEBEE-102","PAYLOAD","U","21059H","2023-08-17 08:51:34","678368","15.35321593","0.0005096","97.6009","7.7161","60.4164","299.7586","0","999","11875","0.0012175","0.00041875","0","3982671","0 SPACEBEE-102","1 48886U 21059H   23229.36915137  .00041875  00000-0  12175-2 0  9997","2 48886  97.6009   7.7161 0005096  60.4164 299.7586 15.35321593118755","2021-059H","48886","6838.102","93.791","463.452","456.483","0"
"GENERATED VIA SPACETRACK.ORG API","18 SPCS","48886","SPACEBEE-102","PAYLOAD","U","21059H","2023-08-18 14:34:42","146400","15.3542684","0.0004992","97.6012","8.9929","55.4362","304.7352","0","999","11894","0.0012897","0.00044527","0","3983853","0 SPACEBEE-102","1 48886U 21059H   23230.60743225  .00044527  00000-0  12897-2 0  9991","2 48886  97.6012   8.9929 0004992  55.4362 304.7352 15.35426840118942","2021-059H","48886","6837.790","93.785","463.068","456.242","0"
"GENERATED VIA SPACETRACK.ORG API","18 SPCS","48886","SPACEBEE-102","PAYLOAD","U","21059H","2023-08-19 09:20:49","401888","15.35491906","0.0004993","97.6013","9.7993","52.371","307.7985","0","999","11906","0.0011622","0.00040177","0","3985046","0 SPACEBEE-102","1 48886U 21059H   23231.38946067  .00040177  00000-0  11622-2 0  9998","2 48886  97.6013   9.7993 0004993  52.3710 307.7985 15.35491906119061","2021-059H","48886","6837.597","93.781","462.876","456.048","0"
"GENERATED VIA SPACETRACK.ORG API","18 SPCS","48886","SPACEBEE-102","PAYLOAD","U","21059H","2023-08-20 22:52:55","830144","15.35613401","0.0004923","97.6013","11.4127","46.4835","313.6816","0","999","11930","0.0011181","0.00038792","0","3985934","0 SPACEBEE-102","1 48886U 21059H   23232.95342396  .00038792  00000-0  11181-2 0  9997","2 48886  97.6013  11.4127 0004923  46.4835 313.6816 15.35613401119307","2021-059H","48886","6837.236","93.774","462.467","455.735","0"
"GENERATED VIA SPACETRACK.ORG API","18 SPCS","48886","SPACEBEE-102","PAYLOAD","U","21059H","2023-08-22 09:17:12","255360","15.35725925","0.0004857","97.6016","12.8919","41.24","318.9209","0","999","11952","0.0011107","0.00038672","0","3987050","0 SPACEBEE-102","1 48886U 21059H   23234.38694740  .00038672  00000-0  11107-2 0  9994","2 48886  97.6016  12.8919 0004857  41.2400 318.9209 15.35725925119524","2021-059H","48886","6836.902","93.767","462.088","455.446","0"
"GENERATED VIA SPACETRACK.ORG API","18 SPCS","48886","SPACEBEE-102","PAYLOAD","U","21059H","2023-08-24 08:11:53","96928","15.35870567","0.0004757","97.601","14.9088","32.7342","327.4195","0","999","11982","0.0010408","0.0003639","0","3988199","0 SPACEBEE-102","1 48886U 21059H   23236.34158677  .00036390  00000-0  10408-2 0  9994","2 48886  97.6010  14.9088 0004757  32.7342 327.4195 15.35870567119822","2021-059H","48886","6836.473","93.758","461.590","455.086","0"
"GENERATED VIA SPACETRACK.ORG API","18 SPCS","48886","SPACEBEE-102","PAYLOAD","U","21059H","2023-08-25 09:12:56","282400","15.359536","0.0004775","97.601","15.9845","29.5687","330.5825","0","999","11998","0.0011317","0.00039698","0","3988651","0 SPACEBEE-102","1 48886U 21059H   23237.38398475  .00039698  00000-0  11317-2 0  9995","2 48886  97.6010  15.9845 0004775  29.5687 330.5825 15.35953600119982","2021-059H","48886","6836.227","93.753","461.356","454.827","0"
"GENERATED VIA SPACETRACK.ORG API","18 SPCS","48886","SPACEBEE-102","PAYLOAD","U","21059H","2023-08-25 09:12:56","282400","15.359536","0.0004775","97.601","15.9845","29.5687","330.5825","0","999","11998","0.0011317","0.00039698","0","3988765","0 SPACEBEE-102","1 48886U 21059H   23237.38398475  .00039698  00000-0  11317-2 0  9995","2 48886  97.6010  15.9845 0004775  29.5687 330.5825 15.35953600119982","2021-059H","48886","6836.227","93.753","461.356","454.827","0"
"GENERATED VIA SPACETRACK.ORG API","18 SPCS","48886","SPACEBEE-102","PAYLOAD","U","21059H","2023-08-25 20:09:37","438560","15.35986948","0.000476","97.6009","16.4551","27.9455","332.2043","0","999","12005","0.0010386","0.00036448","0","3989051","0 SPACEBEE-102","1 48886U 21059H   23237.84001665  .00036448  00000-0  10386-2 0  9993","2 48886  97.6009  16.4551 0004760  27.9455 332.2043 15.35986948120051","2021-059H","48886","6836.128","93.751","461.247","454.739","0"
"GENERATED VIA SPACETRACK.ORG API","18 SPCS","48886","SPACEBEE-102","PAYLOAD","U","21059H","2023-08-26 08:40:06","259584","15.36026762","0.0004728","97.6008","16.9928","25.7818","334.366","0","999","12013","0.0011075","0.00038934","0","3989608","0 SPACEBEE-102","1 48886U 21059H   23238.36118356  .00038934  00000-0  11075-2 0  9995","2 48886  97.6008  16.9928 0004728  25.7818 334.3660 15.36026762120133","2021-059H","48886","6836.009","93.748","461.106","454.642","0"
"GENERATED VIA SPACETRACK.ORG API","18 SPCS","48886","SPACEBEE-102","PAYLOAD","U","21059H","2023-08-26 21:10:33","882240","15.36068662","0.0004711","97.6008","17.5307","23.4977","336.648","0","999","12021","0.0011317","0.00039844","0","3989878","0 SPACEBEE-102","1 48886U 21059H   23238.88233660  .00039844  00000-0  11317-2 0  9998","2 48886  97.6008  17.5307 0004711  23.4977 336.6480 15.36068662120213","2021-059H","48886","6835.885","93.746","460.971","454.530","0"
"GENERATED VIA SPACETRACK.ORG API","18 SPCS","48886","SPACEBEE-102","PAYLOAD","U","21059H","2023-08-26 22:44:22","246944","15.36073415","0.0004706","97.6008","17.598","23.2055","336.94","0","999","12022","0.0011235","0.0003956","0","3990050","0 SPACEBEE-102","1 48886U 21059H   23238.94747971  .00039560  00000-0  11235-2 0  9994","2 48886  97.6008  17.5980 0004706  23.2055 336.9400 15.36073415120227","2021-059H","48886","6835.871","93.746","460.953","454.519","0"
"GENERATED VIA SPACETRACK.ORG API","18 SPCS","48886","SPACEBEE-102","PAYLOAD","U","21059H","2023-08-27 08:07:12","62784","15.3610519","0.0004714","97.6007","18.0014","20.9002","339.2433","0","999","12028","0.001167","0.00041145","0","3990390","0 SPACEBEE-102","1 48886U 21059H   23239.33833406  .00041145  00000-0  11670-2 0  9992","2 48886  97.6007  18.0014 0004714  20.9002 339.2433 15.36105190120289","2021-059H","48886","6835.777","93.744","460.864","454.419","0"
